start=new Date('2023-06-01T00:00:00.000Z').valueOf();
sats=[{"ELEMENT_SET_NO":"999","SEMIMAJOR_AXIS":"6737.231","CENTER_NAME":"EARTH","REV_AT_EPOCH":"1198","RCS_SIZE":"LARGE","RA_OF_ASC_NODE":"329.7989","ECCENTRICITY":"0.00037030","EPHEMERIS_TYPE":"0","TLE_LINE2":"2 55963  69.9975 329.7989 0003703 269.0496  91.0276 15.69931008 11987","MEAN_MOTION_DOT":"0.00001707","MEAN_MOTION":"15.69931008","OBJECT_ID":"2023-037BB","APOAPSIS":"361.591","ARG_OF_PERICENTER":"269.0496","EPOCH":"2023-05-31T21:45:41.897088","LAUNCH_DATE":"2023-03-17","DECAY_DATE":null,"OBJECT_TYPE":"PAYLOAD","SITE":"AFWTR","TLE_LINE1":"1 55963U 23037BB  23151.90673492  .00001707  00000-0  15957-4 0  9991","CLASSIFICATION_TYPE":"U","NORAD_CAT_ID":"55963","PERIAPSIS":"356.602","OBJECT_NAME":"STARLINK-5924","GP_ID":"232930941","COUNTRY_CODE":"US","PERIOD":"91.724","BSTAR":"0.00001595700000","INCLINATION":"69.9975","MEAN_ANOMALY":"91.0276","MEAN_ELEMENT_THEORY":"SGP4","FILE":"3922037","TIME_SYSTEM":"UTC","REF_FRAME":"TEME","MEAN_MOTION_DDOT":"0.0000000000000"},{"CENTER_NAME":"EARTH","SEMIMAJOR_AXIS":"6737.250","ELEMENT_SET_NO":"999","REV_AT_EPOCH":"1198","RCS_SIZE":"LARGE","RA_OF_ASC_NODE":"329.8012","ECCENTRICITY":"0.00030010","TLE_LINE2":"2 55964  69.9975 329.8012 0003001 265.4812  94.6040 15.69924438 11986","EPHEMERIS_TYPE":"0","ARG_OF_PERICENTER":"265.4812","EPOCH":"2023-05-31T21:46:36.966720","MEAN_MOTION_DOT":"0.00001941","MEAN_MOTION":"15.69924438","APOAPSIS":"361.137","OBJECT_ID":"2023-037BC","SITE":"AFWTR","OBJECT_TYPE":"PAYLOAD","TLE_LINE1":"1 55964U 23037BC  23151.90737230  .00001941  00000-0  17910-4 0  9994","LAUNCH_DATE":"2023-03-17","DECAY_DATE":null,"OBJECT_NAME":"STARLINK-5895","NORAD_CAT_ID":"55964","CLASSIFICATION_TYPE":"U","PERIAPSIS":"357.093","FILE":"3922037","MEAN_MOTION_DDOT":"0.0000000000000","REF_FRAME":"TEME","TIME_SYSTEM":"UTC","INCLINATION":"69.9975","PERIOD":"91.724","BSTAR":"0.00001791000000","GP_ID":"232931192","COUNTRY_CODE":"US","MEAN_ANOMALY":"94.6040","MEAN_ELEMENT_THEORY":"SGP4"},{"RA_OF_ASC_NODE":"329.7966","RCS_SIZE":"LARGE","EPHEMERIS_TYPE":"0","TLE_LINE2":"2 55965  69.9989 329.7966 0003389 272.4693  87.6115 15.69916674 11981","ECCENTRICITY":"0.00033890","SEMIMAJOR_AXIS":"6737.272","CENTER_NAME":"EARTH","ELEMENT_SET_NO":"999","REV_AT_EPOCH":"1198","OBJECT_NAME":"STARLINK-5894","PERIAPSIS":"356.854","CLASSIFICATION_TYPE":"U","NORAD_CAT_ID":"55965","TIME_SYSTEM":"UTC","REF_FRAME":"TEME","MEAN_MOTION_DDOT":"0.0000000000000","FILE":"3922037","MEAN_ANOMALY":"87.6115","MEAN_ELEMENT_THEORY":"SGP4","COUNTRY_CODE":"US","GP_ID":"232929940","INCLINATION":"69.9989","PERIOD":"91.725","BSTAR":"-0.00001382600000","EPOCH":"2023-05-31T21:44:57.113376","ARG_OF_PERICENTER":"272.4693","OBJECT_ID":"2023-037BD","APOAPSIS":"361.421","MEAN_MOTION_DOT":"-0.00001874","MEAN_MOTION":"15.69916674","TLE_LINE1":"1 55965U 23037BD  23151.90621659 -.00001874  00000-0 -13826-4 0  9991","OBJECT_TYPE":"PAYLOAD","SITE":"AFWTR","DECAY_DATE":null,"LAUNCH_DATE":"2023-03-17"},{"TLE_LINE2":"2 55986  43.0006 161.1522 0001108 266.3565  93.7152 15.04489104 11341","EPHEMERIS_TYPE":"0","ECCENTRICITY":"0.00011080","RA_OF_ASC_NODE":"161.1522","RCS_SIZE":"LARGE","REV_AT_EPOCH":"1134","ELEMENT_SET_NO":"999","CENTER_NAME":"EARTH","SEMIMAJOR_AXIS":"6931.211","MEAN_ANOMALY":"93.7152","MEAN_ELEMENT_THEORY":"SGP4","INCLINATION":"43.0006","PERIOD":"95.714","BSTAR":"0.00002079400000","GP_ID":"232929692","COUNTRY_CODE":"US","MEAN_MOTION_DDOT":"0.0000000000000","REF_FRAME":"TEME","TIME_SYSTEM":"UTC","FILE":"3922037","PERIAPSIS":"552.308","NORAD_CAT_ID":"55986","CLASSIFICATION_TYPE":"U","OBJECT_NAME":"STARLINK-5905","DECAY_DATE":null,"LAUNCH_DATE":"2023-03-24","TLE_LINE1":"1 55986U 23042A   23151.72165752  .00000089  00000-0  20794-4 0  9994","SITE":"AFETR","OBJECT_TYPE":"PAYLOAD","APOAPSIS":"553.844","OBJECT_ID":"2023-042A","MEAN_MOTION_DOT":"0.00000089","MEAN_MOTION":"15.04489104","EPOCH":"2023-05-31T17:19:11.209728","ARG_OF_PERICENTER":"266.3565"},{"OBJECT_NAME":"STARLINK-5915","PERIAPSIS":"552.136","CLASSIFICATION_TYPE":"U","NORAD_CAT_ID":"55987","TIME_SYSTEM":"UTC","MEAN_MOTION_DDOT":"0.0000000000000","REF_FRAME":"TEME","FILE":"3921805","MEAN_ELEMENT_THEORY":"SGP4","MEAN_ANOMALY":"86.2133","COUNTRY_CODE":"US","GP_ID":"232899740","PERIOD":"95.713","BSTAR":"0.00006548100000","INCLINATION":"42.9998","EPOCH":"2023-05-31T12:01:27.513696","ARG_OF_PERICENTER":"273.8557","OBJECT_ID":"2023-042B","APOAPSIS":"553.990","MEAN_MOTION_DOT":"0.00000725","MEAN_MOTION":"15.04493434","TLE_LINE1":"1 55987U 23042B   23151.50101289  .00000725  00000-0  65481-4 0  9995","OBJECT_TYPE":"PAYLOAD","SITE":"AFETR","DECAY_DATE":null,"LAUNCH_DATE":"2023-03-24","RCS_SIZE":"LARGE","RA_OF_ASC_NODE":"162.0784","EPHEMERIS_TYPE":"0","TLE_LINE2":"2 55987  42.9998 162.0784 0001338 273.8557  86.2133 15.04493434 10839","ECCENTRICITY":"0.00013380","SEMIMAJOR_AXIS":"6931.198","CENTER_NAME":"EARTH","ELEMENT_SET_NO":"999","REV_AT_EPOCH":"1083"},{"OBJECT_NAME":"STARLINK-5916","PERIAPSIS":"552.371","NORAD_CAT_ID":"55988","CLASSIFICATION_TYPE":"U","REF_FRAME":"TEME","MEAN_MOTION_DDOT":"0.0000000000000","TIME_SYSTEM":"UTC","FILE":"3922037","MEAN_ANOMALY":"84.2938","MEAN_ELEMENT_THEORY":"SGP4","PERIOD":"95.713","BSTAR":"0.00014323000000","INCLINATION":"42.9985","GP_ID":"232931194","COUNTRY_CODE":"US","EPOCH":"2023-05-31T17:10:08.698080","ARG_OF_PERICENTER":"275.7796","APOAPSIS":"553.704","OBJECT_ID":"2023-042C","MEAN_MOTION_DOT":"0.00001832","MEAN_MOTION":"15.04501695","TLE_LINE1":"1 55988U 23042C   23151.71537845  .00001832  00000-0  14323-3 0  9998","SITE":"AFETR","OBJECT_TYPE":"PAYLOAD","DECAY_DATE":null,"LAUNCH_DATE":"2023-03-24","RA_OF_ASC_NODE":"161.1069","RCS_SIZE":"LARGE","TLE_LINE2":"2 55988  42.9985 161.1069 0000962 275.7796  84.2938 15.04501695 10526","EPHEMERIS_TYPE":"0","ECCENTRICITY":"0.00009620","CENTER_NAME":"EARTH","SEMIMAJOR_AXIS":"6931.173","ELEMENT_SET_NO":"999","REV_AT_EPOCH":"1052"},{"ELEMENT_SET_NO":"999","CENTER_NAME":"EARTH","SEMIMAJOR_AXIS":"6931.207","REV_AT_EPOCH":"1052","RA_OF_ASC_NODE":"161.0697","RCS_SIZE":"LARGE","ECCENTRICITY":"0.00013050","TLE_LINE2":"2 55989  43.0000 161.0697 0001305 268.4286  91.6408 15.04490630 10528","EPHEMERIS_TYPE":"0","MEAN_MOTION_DOT":"-0.00000007","MEAN_MOTION":"15.04490630","APOAPSIS":"553.976","OBJECT_ID":"2023-042D","ARG_OF_PERICENTER":"268.4286","EPOCH":"2023-05-31T17:03:13.241088","LAUNCH_DATE":"2023-03-24","DECAY_DATE":null,"SITE":"AFETR","OBJECT_TYPE":"PAYLOAD","TLE_LINE1":"1 55989U 23042D   23151.71056992 -.00000007  00000-0  14057-4 0  9997","NORAD_CAT_ID":"55989","CLASSIFICATION_TYPE":"U","PERIAPSIS":"552.167","OBJECT_NAME":"STARLINK-5947","PERIOD":"95.713","INCLINATION":"43.0000","BSTAR":"0.00001405700000","GP_ID":"232929942","COUNTRY_CODE":"US","MEAN_ANOMALY":"91.6408","MEAN_ELEMENT_THEORY":"SGP4","FILE":"3922037","REF_FRAME":"TEME","MEAN_MOTION_DDOT":"0.0000000000000","TIME_SYSTEM":"UTC"},{"EPHEMERIS_TYPE":"0","TLE_LINE2":"2 55990  43.0002 161.1311 0001285 272.2047  87.8649 15.04484613 10529","ECCENTRICITY":"0.00012850","RA_OF_ASC_NODE":"161.1311","RCS_SIZE":"LARGE","REV_AT_EPOCH":"1052","ELEMENT_SET_NO":"999","SEMIMAJOR_AXIS":"6931.225","CENTER_NAME":"EARTH","MEAN_ELEMENT_THEORY":"SGP4","MEAN_ANOMALY":"87.8649","GP_ID":"232930192","COUNTRY_CODE":"US","INCLINATION":"43.0002","PERIOD":"95.714","BSTAR":"0.00000014998000","TIME_SYSTEM":"UTC","MEAN_MOTION_DDOT":"0.0000000000000","REF_FRAME":"TEME","FILE":"3922037","PERIAPSIS":"552.200","CLASSIFICATION_TYPE":"U","NORAD_CAT_ID":"55990","OBJECT_NAME":"STARLINK-5946","DECAY_DATE":null,"LAUNCH_DATE":"2023-03-24","TLE_LINE1":"1 55990U 23042E   23151.71875428 -.00000205  00000-0  14998-6 0  9998","OBJECT_TYPE":"PAYLOAD","SITE":"AFETR","OBJECT_ID":"2023-042E","APOAPSIS":"553.981","MEAN_MOTION_DOT":"-0.00000205","MEAN_MOTION":"15.04484613","EPOCH":"2023-05-31T17:15:00.369792","ARG_OF_PERICENTER":"272.2047"},{"RA_OF_ASC_NODE":"162.0177","RCS_SIZE":"LARGE","TLE_LINE2":"2 55991  43.0002 162.0177 0001219 260.0888  99.9818 15.04491981 10499","EPHEMERIS_TYPE":"0","ECCENTRICITY":"0.00012190","CENTER_NAME":"EARTH","SEMIMAJOR_AXIS":"6931.203","ELEMENT_SET_NO":"999","REV_AT_EPOCH":"1049","OBJECT_NAME":"STARLINK-5948","PERIAPSIS":"552.223","NORAD_CAT_ID":"55991","CLASSIFICATION_TYPE":"U","REF_FRAME":"TEME","MEAN_MOTION_DDOT":"0.0000000000000","TIME_SYSTEM":"UTC","FILE":"3921767","MEAN_ELEMENT_THEORY":"SGP4","MEAN_ANOMALY":"99.9818","PERIOD":"95.713","INCLINATION":"43.0002","BSTAR":"-0.00013930000000","GP_ID":"232898181","COUNTRY_CODE":"US","EPOCH":"2023-05-31T11:49:54.028416","ARG_OF_PERICENTER":"260.0888","APOAPSIS":"553.912","OBJECT_ID":"2023-042F","MEAN_MOTION_DOT":"-0.00002189","MEAN_MOTION":"15.04491981","TLE_LINE1":"1 55991U 23042F   23151.49298644 -.00002189  00000-0 -13930-3 0  9999","SITE":"AFETR","OBJECT_TYPE":"PAYLOAD","DECAY_DATE":null,"LAUNCH_DATE":"2023-03-24"},{"MEAN_ELEMENT_THEORY":"SGP4","MEAN_ANOMALY":"95.3398","BSTAR":"0.00001907100000","PERIOD":"95.714","INCLINATION":"42.9997","GP_ID":"232896436","COUNTRY_CODE":"US","REF_FRAME":"TEME","MEAN_MOTION_DDOT":"0.0000000000000","TIME_SYSTEM":"UTC","FILE":"3921767","PERIAPSIS":"552.394","NORAD_CAT_ID":"55992","CLASSIFICATION_TYPE":"U","OBJECT_NAME":"STARLINK-5962","DECAY_DATE":null,"LAUNCH_DATE":"2023-03-24","TLE_LINE1":"1 55992U 23042G   23151.50505307  .00000064  00000-0  19071-4 0  9990","SITE":"AFETR","OBJECT_TYPE":"PAYLOAD","APOAPSIS":"553.756","OBJECT_ID":"2023-042G","MEAN_MOTION":"15.04489531","MEAN_MOTION_DOT":"0.00000064","EPOCH":"2023-05-31T12:07:16.585248","ARG_OF_PERICENTER":"264.7333","TLE_LINE2":"2 55992  42.9997 162.1099 0000983 264.7333  95.3398 15.04489531 10499","EPHEMERIS_TYPE":"0","ECCENTRICITY":"0.00009830","RA_OF_ASC_NODE":"162.1099","RCS_SIZE":"LARGE","REV_AT_EPOCH":"1049","ELEMENT_SET_NO":"999","CENTER_NAME":"EARTH","SEMIMAJOR_AXIS":"6931.210"}];
